NORAD_CAT_ID,OBJECT_NAME,OBJECT_TYPE,EPOCH,MEAN_MOTION,ECCENTRICITY,INCLINATION,RA_OF_ASC_NODE,ARG_OF_PERICENTER,MEAN_ANOMALY,BSTAR,MEAN_MOTION_DOT,MEAN_MOTION_DDOT,TLE_LINE0,TLE_LINE1,TLE_LINE2,SEMIMAJOR_AXIS,PERIOD,APOGEE,PERIGEE,DECAYED
51812.0,STARLINK-3610,PAYLOAD,2023-07-07 06:11:16,15.08841523,0.0001151,53.2182,32.491,83.4084,276.7039,5.4996e-05,5.88e-06,0.0,0 STARLINK-3610,1 51812U 22017AW  23188.25783020  .00000588  00000-0  54996-4 0  9996,2 51812  53.2182  32.4910 0001151  83.4084 276.7039 15.08841523 76794,6917.876,95.437,540.537,538.944,0.0
51812.0,STARLINK-3610,PAYLOAD,2023-07-08 20:20:32,15.08840391,0.0001108,53.2178,25.3571,102.0407,258.071,3.4637e-06,-2.33e-06,0.0,0 STARLINK-3610,1 51812U 22017AW  23189.84759439 -.00000233  00000-0  34637-5 0  9998,2 51812  53.2178  25.3571 0001108 102.0407 258.0710 15.08840391 77031,6917.879,95.438,540.511,538.978,0.0
51812.0,STARLINK-3610,PAYLOAD,2023-07-09 21:46:42,15.08841696,9.86e-05,53.2183,20.5991,101.6964,258.4139,1.1498e-05,-1.05e-06,0.0,0 STARLINK-3610,1 51812U 22017AW  23190.90743552 -.00000105  00000-0  11498-4 0  9993,2 51812  53.2183  20.5991 0000986 101.6964 258.4139 15.08841696 77191,6917.875,95.437,540.422,539.058,0.0
51812.0,STARLINK-3610,PAYLOAD,2023-07-10 12:05:11,15.08826212,0.0001113,53.218,17.9217,98.3497,261.7621,0.00029981,4.485e-05,0.0,0 STARLINK-3610,1 51812U 22017AW  23191.50360036  .00004485  00000-0  29981-3 0  9991,2 51812  53.2180  17.9217 0001113  98.3497 261.7621 15.08826212 77285,6917.923,95.438,540.557,539.018,0.0
51812.0,STARLINK-3610,PAYLOAD,2023-07-10 23:12:52,15.08848627,0.0001052,53.2183,15.8404,94.7051,265.4061,0.00014469,2.016e-05,0.0,0 STARLINK-3610,1 51812U 22017AW  23191.96726957  .00002016  00000-0  14469-3 0  9992,2 51812  53.2183  15.8404 0001052  94.7051 265.4061 15.08848627 77352,6917.854,95.437,540.447,538.991,0.0
51812.0,STARLINK-3610,PAYLOAD,2023-07-11 05:34:25,15.08836967,0.0001222,53.2183,14.6512,84.8746,275.2386,4.5212e-05,4.32e-06,0.0,0 STARLINK-3610,1 51812U 22017AW  23192.23224060  .00000432  00000-0  45212-4 0  9992,2 51812  53.2183  14.6512 0001222  84.8746 275.2386 15.08836967 77396,6917.89,95.438,540.6,538.909,0.0
51812.0,STARLINK-3610,PAYLOAD,2023-07-12 18:08:17,15.08843677,0.0001013,53.2172,7.8113,83.8068,276.304,9.5483e-05,1.232e-05,0.0,0 STARLINK-3610,1 51812U 22017AW  23193.75575717  .00001232  00000-0  95483-4 0  9992,2 51812  53.2172   7.8113 0001013  83.8068 276.3040 15.08843677 77620,6917.869,95.437,540.435,539.033,0.0
51812.0,STARLINK-3610,PAYLOAD,2023-07-13 17:59:04,15.08840655,0.0001038,53.2178,3.35,88.9553,271.1558,0.00016346,2.315e-05,0.0,0 STARLINK-3610,1 51812U 22017AW  23194.74935971  .00002315  00000-0  16346-3 0  9997,2 51812  53.2178   3.3500 0001038  88.9553 271.1558 15.08840655 77775,6917.878,95.438,540.461,539.025,0.0
51812.0,STARLINK-3610,PAYLOAD,2023-07-14 21:00:37,15.08848807,0.0001067,53.218,358.2948,87.7756,272.3359,0.00015459,2.174e-05,0.0,0 STARLINK-3610,1 51812U 22017AW  23195.87543514  .00002174  00000-0  15459-3 0  9997,2 51812  53.2180 358.2948 0001067  87.7756 272.3359 15.08848807 77948,6917.853,95.437,540.457,538.98,0.0
51812.0,STARLINK-3610,PAYLOAD,2023-07-15 11:19:06,15.0883836,0.0001419,53.218,355.6203,94.3253,265.7902,-3.124e-06,-3.38e-06,0.0,0 STARLINK-3610,1 51812U 22017AW  23196.47160073 -.00000338  00000-0 -31240-5 0  9999,2 51812  53.2180 355.6203 0001419  94.3253 265.7902 15.08838360 78034,6917.885,95.438,540.732,538.769,0.0
51812.0,STARLINK-3610,PAYLOAD,2023-07-16 19:06:48,15.08847877,0.0001046,53.2187,349.6727,88.8747,271.2364,7.2073e-05,8.6e-06,0.0,0 STARLINK-3610,1 51812U 22017AW  23197.79639822  .00000860  00000-0  72073-4 0  9994,2 51812  53.2187 349.6727 0001046  88.8747 271.2364 15.08847877 78236,6917.856,95.437,540.445,538.998,0.0
51812.0,STARLINK-3610,PAYLOAD,2023-07-17 15:46:49,15.0884007,0.000117,53.2179,345.8073,87.4971,272.6155,9.9326e-05,1.293e-05,0.0,0 STARLINK-3610,1 51812U 22017AW  23198.65752232  .00001293  00000-0  99326-4 0  9992,2 51812  53.2179 345.8073 0001170  87.4971 272.6155 15.08840070 78366,6917.88,95.438,540.555,538.936,0.0
51812.0,STARLINK-3610,PAYLOAD,2023-07-18 17:12:59,15.08848225,0.0001511,53.2192,341.0501,63.8857,296.2291,0.00015297,2.148e-05,0.0,0 STARLINK-3610,1 51812U 22017AW  23199.71735997  .00002148  00000-0  15297-3 0  9993,2 51812  53.2192 341.0501 0001511  63.8857 296.2291 15.08848225 78526,6917.855,95.437,540.766,538.675,0.0
51812.0,STARLINK-3610,PAYLOAD,2023-07-19 18:39:11,15.08833874,0.0001544,53.2199,336.2892,70.0035,290.1124,3.4698e-07,-2.82e-06,0.0,0 STARLINK-3610,1 51812U 22017AW  23200.77721187 -.00000282  00000-0  34698-6 0  9995,2 51812  53.2199 336.2892 0001544  70.0035 290.1124 15.08833874 78685,6917.899,95.438,540.832,538.696,0.0
51812.0,STARLINK-3610,PAYLOAD,2023-07-20 16:54:34,15.08849677,0.0001239,53.2188,332.1273,82.7869,277.3264,0.0002146,3.13e-05,0.0,0 STARLINK-3610,1 51812U 22017AW  23201.70456589  .00003130  00000-0  21460-3 0  9994,2 51812  53.2188 332.1273 0001239  82.7869 277.3264 15.08849677 78823,6917.851,95.437,540.573,538.859,0.0
51812.0,STARLINK-3610,PAYLOAD,2023-07-21 16:45:21,15.08847424,0.0001213,53.2187,327.6668,90.4236,269.6895,0.00026483,3.93e-05,0.0,0 STARLINK-3610,1 51812U 22017AW  23202.69816644  .00003930  00000-0  26483-3 0  9993,2 51812  53.2187 327.6668 0001213  90.4236 269.6895 15.08847424 78973,6917.858,95.437,540.562,538.884,0.0
51812.0,STARLINK-3610,PAYLOAD,2023-07-23 16:26:55,15.08838913,0.0001629,53.2177,318.7433,125.3171,234.7974,-1.6558e-05,-5.52e-06,0.0,0 STARLINK-3610,1 51812U 22017AW  23204.68536925 -.00000552  00000-0 -16558-4 0  9997,2 51812  53.2177 318.7433 0001629 125.3171 234.7974 15.08838913 79155,6917.884,95.438,540.876,538.622,0.0
51812.0,STARLINK-3610,PAYLOAD,2023-07-25 11:22:21,15.08826214,9.33e-05,53.2171,310.7196,85.6319,274.4779,0.00043814,6.689e-05,0.0,0 STARLINK-3610,1 51812U 22017AW  23206.47385945  .00006689  00000-0  43814-3 0  9999,2 51812  53.2171 310.7196 0000933  85.6319 274.4779 15.08826214 79421,6917.923,95.438,540.433,539.142,0.0
51812.0,STARLINK-3610,PAYLOAD,2023-07-26 06:26:58,15.08838743,0.0001106,53.2171,307.1516,79.8298,280.2819,0.00012804,1.75e-05,0.0,0 STARLINK-3610,1 51812U 22017AW  23207.26873369  .00001750  00000-0  12804-3 0  9998,2 51812  53.2171 307.1516 0001106  79.8298 280.2819 15.08838743 79544,6917.884,95.438,540.514,538.984,0.0
51812.0,STARLINK-3610,PAYLOAD,2023-07-26 14:23:53,15.0885748,7.19e-05,53.2169,305.6652,80.8743,279.233,-0.00013657,-2.462e-05,0.0,0 STARLINK-3610,1 51812U 22017AW  23207.59992381 -.00002462  00000-0 -13657-3 0  9990,2 51812  53.2169 305.6652 0000719  80.8743 279.2330 15.08857480 79715,6917.827,95.436,540.189,539.195,0.0
51812.0,STARLINK-3610,PAYLOAD,2023-07-27 15:50:04,15.08844372,0.0001062,53.2169,300.9053,90.7134,269.398,8.692e-05,1.096e-05,0.0,0 STARLINK-3610,1 51812U 22017AW  23208.65976912  .00001096  00000-0  86920-4 0  9994,2 51812  53.2169 300.9053 0001062  90.7134 269.3980 15.08844372 79878,6917.867,95.437,540.467,538.997,0.0
51812.0,STARLINK-3610,PAYLOAD,2023-07-28 06:08:33,15.08835557,0.00014,53.2151,298.2315,61.5495,298.5638,-8.4311e-06,-4.22e-06,0.0,0 STARLINK-3610,1 51812U 22017AW  23209.25593790 -.00000422  00000-0 -84311-5 0  9997,2 51812  53.2151 298.2315 0001400  61.5495 298.5638 15.08835557 79960,6917.894,95.438,540.727,538.79,0.0
51812.0,STARLINK-3610,PAYLOAD,2023-07-29 10:45:28,15.08842,0.0001128,53.218,292.8766,103.5786,256.5332,6.9349e-05,8.16e-06,0.0,0 STARLINK-3610,1 51812U 22017AW  23210.44825112  .00000816  00000-0  69349-4 0  9994,2 51812  53.2180 292.8766 0001128 103.5786 256.5332 15.08842000 80147,6917.874,95.437,540.52,538.959,0.0
51812.0,STARLINK-3610,PAYLOAD,2023-07-30 10:36:16,15.08832601,0.000114,53.2179,288.4198,84.596,275.5162,0.00012156,1.647e-05,0.0,0 STARLINK-3610,1 51812U 22017AW  23211.44185914  .00001647  00000-0  12156-3 0  9990,2 51812  53.2179 288.4198 0001140  84.5960 275.5162 15.08832601 80295,6917.903,95.438,540.557,538.979,0.0
51812.0,STARLINK-3610,PAYLOAD,2023-07-31 13:37:49,15.08846788,0.0001134,53.2172,283.3631,86.7755,273.3367,5.8096e-05,6.37e-06,0.0,0 STARLINK-3610,1 51812U 22017AW  23212.56793312  .00000637  00000-0  58096-4 0  9993,2 51812  53.2172 283.3631 0001134  86.7755 273.3367 15.08846788 80466,6917.86,95.437,540.509,538.94,0.0
51812.0,STARLINK-3610,PAYLOAD,2023-08-01 10:17:50,15.08835492,0.0001132,53.2169,279.4967,91.0583,269.0539,1.225e-05,-9.3e-07,0.0,0 STARLINK-3610,1 51812U 22017AW  23213.42906154 -.00000093  00000-0  12250-4 0  9998,2 51812  53.2169 279.4967 0001132  91.0583 269.0539 15.08835492 80593,6917.894,95.438,540.542,538.976,0.0
51812.0,STARLINK-3610,PAYLOAD,2023-08-02 11:44:00,15.08843681,0.0001144,53.2171,274.7381,83.5408,276.5715,8.4455e-06,-1.53e-06,0.0,0 STARLINK-3610,1 51812U 22017AW  23214.48889822 -.00000153  00000-0  84455-5 0  9991,2 51812  53.2171 274.7381 0001144  83.5408 276.5715 15.08843681 80755,6917.869,95.437,540.526,538.943,0.0
51812.0,STARLINK-3610,PAYLOAD,2023-08-03 16:20:56,15.0884596,0.0001392,53.218,269.383,72.7038,287.4107,0.00010947,1.455e-05,0.0,0 STARLINK-3610,1 51812U 22017AW  23215.68121451  .00001455  00000-0  10947-3 0  9999,2 51812  53.2180 269.3830 0001392  72.7038 287.4107 15.08845960 80936,6917.862,95.437,540.69,538.764,0.0
51812.0,STARLINK-3610,PAYLOAD,2023-08-04 09:50:12,15.08837215,0.0001157,53.2162,266.1145,84.1031,276.0093,-2.0357e-06,-3.2e-06,0.0,0 STARLINK-3610,1 51812U 22017AW  23216.40986360 -.00000320  00000-0 -20357-5 0  9998,2 51812  53.2162 266.1145 0001157  84.1031 276.0093 15.08837215 81044,6917.889,95.438,540.554,538.954,0.0
51812.0,STARLINK-3610,PAYLOAD,2023-08-05 03:19:26,15.08847686,0.000143,53.216,262.8417,129.1065,231.0055,-5.3638e-05,-1.142e-05,0.0,0 STARLINK-3610,1 51812U 22017AW  23217.13849851 -.00001142  00000-0 -53638-4 0  9992,2 51812  53.2160 262.8417 0001430 129.1065 231.0055 15.08847686 81152,6917.857,95.437,540.711,538.733,0.0
